#dV2023  1 25 10  0  0.00000000    1682       CTS   FIT  GFZ
## 2246 295200.00000000    30.00000000 59969 0.4166666666667
+    1   L65  0  0  0  0  0  0  0  0  0  0  0  0  0  0  0  0
+          0  0  0  0  0  0  0  0  0  0  0  0  0  0  0  0  0
+          0  0  0  0  0  0  0  0  0  0  0  0  0  0  0  0  0
+          0  0  0  0  0  0  0  0  0  0  0  0  0  0  0  0  0
+          0  0  0  0  0  0  0  0  0  0  0  0  0  0  0  0  0
++         0  0  0  0  0  0  0  0  0  0  0  0  0  0  0  0  0
++         0  0  0  0  0  0  0  0  0  0  0  0  0  0  0  0  0
++         0  0  0  0  0  0  0  0  0  0  0  0  0  0  0  0  0
++         0  0  0  0  0  0  0  0  0  0  0  0  0  0  0  0  0
++         0  0  0  0  0  0  0  0  0  0  0  0  0  0  0  0  0
%c L  cc GPS ccc cccc cccc cccc cccc ccccc ccccc ccccc ccccc
%c cc cc ccc ccc cccc cccc cccc cccc ccccc ccccc ccccc ccccc
%f  0.0000000  0.000000000  0.00000000000  0.000000000000000
%f  0.0000000  0.000000000  0.00000000000  0.000000000000000
%i    0    0    0    0      0      0      0      0         0
%i    0    0    0    0      0      0      0      0         0
/* CCCCCCCCCCCCCCCCCCCCCCCCCCCCCCCCCCCCCCCCCCCCCCCCCCCCCCCCCCCCCCCCCCCCCCCCCCCCC
/* C                             GFZ RSO-ORBIT                                 C
/* C DOI: https://doi.org/10.5880/GFZ_ORBIT/RSO/L65_G_v02                      C
/* C                                                                           C
/* C DORIS        RMS: not applicable                                          C
/* C GNSS-E Code  RMS: not applicable                                          C
/* C GNSS-E Phase RMS: not applicable                                          C
/* C GNSS-G Code  RMS:  54.768 [cm]   Obs.acc.:     13800 Obs.eli.:      1062  C
/* C GNSS-G Phase RMS:   5.193 [mm]   Obs.acc.:     13800 Obs.eli.:      1062  C
/* C SLR          RMS:   1.880 [cm]   Obs.acc.:        67 Obs.eli.:         0  C
/* C                                                                           C
/* CCCCCCCCCCCCCCCCCCCCCCCCCCCCCCCCCCCCCCCCCCCCCCCCCCCCCCCCCCCCCCCCCCCCCCCCCCCCC
*  2023  1 25 22 45  0.00000000
PL65   -890.739997  -6700.396030   1276.444986   7832.561141
VL65  -1663.588301  14526.099912  74754.788692 999999.999999
*  2023  1 25 22 45 30.00000000
PL65   -895.139863  -6653.135335   1499.961850   7833.029106
VL65  -1267.599461  16977.853718  74242.713416 999999.999999
*  2023  1 25 22 46  0.00000000
PL65   -898.333523  -6598.549346   1721.819125   7833.497070
VL65   -859.540803  19409.170647  73648.499563 999999.999999
*  2023  1 25 22 46 30.00000000
PL65   -900.285584  -6536.703490   1941.771370   7833.965122
VL65   -439.959622  21817.309886  72972.811284 999999.999999
*  2023  1 25 22 47  0.00000000
PL65   -900.962330  -6467.671378   2159.575270   7834.433160
VL65     -9.428600  24199.558397  72216.403363 999999.999999
*  2023  1 25 22 47 30.00000000
PL65   -900.331802  -6391.534715   2374.989915   7834.901247
VL65    431.455712  26553.232870  71380.123355 999999.999999
*  2023  1 25 22 48  0.00000000
PL65   -898.363860  -6308.383203   2587.777076   7835.369379
VL65    882.075543  28875.686865  70464.912284 999999.999999
*  2023  1 25 22 48 30.00000000
PL65   -895.030250  -6218.314419   2797.701484   7835.837718
VL65   1341.793154  31164.316825  69471.799773 999999.999999
*  2023  1 25 22 49  0.00000000
PL65   -890.304660  -6121.433687   3004.531085   7836.305928
VL65   1809.950742  33416.562921  68401.899992 999999.999999
*  2023  1 25 22 49 30.00000000
PL65   -884.162783  -6017.853942   3208.037292   7836.774048
VL65   2285.869881  35629.910255  67256.410982 999999.999999
*  2023  1 25 22 50  0.00000000
PL65   -876.582378  -5907.695593   3407.995239   7837.242352
VL65   2768.851782  37801.891757  66036.613383 999999.999999
*  2023  1 25 22 50 30.00000000
PL65   -867.543327  -5791.086377   3604.184024   7837.710568
VL65   3258.178611  39930.089790  64743.869560 999999.999999
*  2023  1 25 22 51  0.00000000
PL65   -857.027696  -5668.161205   3796.386952   7838.179007
VL65   3753.114897  42012.139614  63379.623409 999999.999999
*  2023  1 25 22 51 30.00000000
PL65   -845.019780  -5539.061997   3984.391782   7838.647450
VL65   4252.908824  44045.733401  61945.397729 999999.999999
*  2023  1 25 22 52  0.00000000
PL65   -831.506151  -5403.937511   4167.990955   7839.115871
VL65   4756.793836  46028.622325  60442.791533 999999.999999
*  2023  1 25 22 52 30.00000000
PL65   -816.475705  -5262.943158   4346.981821   7839.584270
VL65   5263.990298  47958.618629  58873.477908 999999.999999
*  2023  1 25 22 53  0.00000000
PL65   -799.919690  -5116.240819   4521.166858   7840.052525
VL65   5773.706495  49833.597070  57239.201801 999999.999999
*  2023  1 25 22 53 30.00000000
PL65   -781.831749  -4963.998657   4690.353883   7840.520728
VL65   6285.139191  51651.496636  55541.779139 999999.999999
*  2023  1 25 22 54  0.00000000
PL65   -762.207951  -4806.390914   4854.356269   7840.988885
VL65   6797.474533  53410.323989  53783.095195 999999.999999
*  2023  1 25 22 54 30.00000000
PL65   -741.046822  -4643.597710   5012.993143   7841.457044
VL65   7309.889126  55108.155942  51965.101636 999999.999999
*  2023  1 25 22 55  0.00000000
PL65   -718.349369  -4475.804828   5166.089583   7841.925298
VL65   7821.551273  56743.140870  50089.814606 999999.999999
*  2023  1 25 22 55 30.00000000
PL65   -694.119105  -4303.203492   5313.476814   7842.393425
VL65   8331.622438  58313.501334  48159.313166 999999.999999
*  2023  1 25 22 56  0.00000000
PL65   -668.362069  -4125.990147   5454.992385   7842.861668
VL65   8839.258679  59817.537293  46175.736001 999999.999999
*  2023  1 25 22 56 30.00000000
PL65   -641.086836  -3944.366217   5590.480347   7843.330181
VL65   9343.611931  61253.627630  44141.277210 999999.999999
*  2023  1 25 22 57  0.00000000
PL65   -612.304531  -3758.537872   5719.791412   7843.798409
VL65   9843.831120  62620.230322  42058.183689 999999.999999
*  2023  1 25 22 57 30.00000000
PL65   -582.028836  -3568.715787   5842.783110   7844.266675
VL65  10339.063581  63915.883894  39928.753389 999999.999999
*  2023  1 25 22 58  0.00000000
PL65   -550.275989  -3375.114899   5959.319939   7844.734792
VL65  10828.456568  65139.209534  37755.332005 999999.999999
*  2023  1 25 22 58 30.00000000
PL65   -517.064788  -3177.954156   6069.273499   7845.202686
VL65  11311.158195  66288.911604  35540.308976 999999.999999
*  2023  1 25 22 59  0.00000000
PL65   -482.416582  -2977.456269   6172.522621   7845.669868
VL65  11786.318108  67363.776933  33286.115153 999999.999999
*  2023  1 25 22 59 30.00000000
PL65   -446.355269  -2773.847464   6268.953490   7846.137107
VL65  12253.088422  68362.675219  30995.222112 999999.999999
*  2023  1 25 23  0  0.00000000
PL65   -408.907285  -2567.357232   6358.459764   7846.604717
VL65  12710.625102  69284.561404  28670.140893 999999.999999
*  2023  1 25 23  0 30.00000000
PL65   -370.101591  -2358.218069   6440.942692   7847.072888
VL65  13158.089549  70128.477657  26313.418211 999999.999999
*  2023  1 25 23  1  0.00000000
PL65   -329.969653  -2146.665211   6516.311210   7847.541372
VL65  13594.649752  70893.552602  23927.633047 999999.999999
*  2023  1 25 23  1 30.00000000
PL65   -288.545422  -1932.936382   6584.482038   7848.010091
VL65  14019.481098  71579.001318  21515.395859 999999.999999
*  2023  1 25 23  2  0.00000000
PL65   -245.865311  -1717.271528   6645.379773   7848.478637
VL65  14431.767345  72184.127712  19079.346752 999999.999999
*  2023  1 25 23  2 30.00000000
PL65   -201.968169  -1499.912547   6698.936972   7848.946984
VL65  14830.702189  72708.326252  16622.151865 999999.999999
*  2023  1 25 23  3  0.00000000
PL65   -156.895245  -1281.103016   6745.094225   7849.415376
VL65  15215.491193  73151.082341  14146.499411 999999.999999
*  2023  1 25 23  3 30.00000000
PL65   -110.690150  -1061.087923   6783.800218   7849.883739
VL65  15585.353385  73511.971418  11655.096814 999999.999999
*  2023  1 25 23  4  0.00000000
PL65    -63.398818   -840.113392   6815.011781 999999.999999
VL65  15939.522197  73790.658896   9150.669314 999999.999999
*  2023  1 25 23  4 30.00000000
PL65    -15.069462   -618.426417   6838.693949   7850.820031
VL65  16277.246253  73986.901340   6635.957453 999999.999999
*  2023  1 25 23  5  0.00000000
PL65     34.247479   -396.274584   6854.819994   7851.288336
VL65  16597.790958  74100.546968   4113.713825 999999.999999
*  2023  1 25 23  5 30.00000000
PL65     84.499388   -173.905795   6863.371461   7851.756630
VL65  16900.440087  74131.536298   1586.699825 999999.999999
*  2023  1 25 23  6  0.00000000
PL65    135.631527     48.432007   6864.338188   7852.224944
VL65  17184.496493  74079.902044   -942.318430 999999.999999
*  2023  1 25 23  6 30.00000000
PL65    187.587096    270.491114   6857.718314   7852.693344
VL65  17449.282506  73945.767349  -3470.572875 999999.999999
*  2023  1 25 23  7  0.00000000
PL65    240.307293    492.024321   6843.518284   7853.161684
VL65  17694.141089  73729.345389  -5995.294200 999999.999999
*  2023  1 25 23  7 30.00000000
PL65    293.731380    712.785200   6821.752850   7853.629937
VL65  17918.437832  73430.940628  -8513.714409 999999.999999
*  2023  1 25 23  8  0.00000000
PL65    347.796747    932.528374   6792.445062   7854.098110
VL65  18121.562346  73050.948693 -11023.070349 999999.999999
*  2023  1 25 23  8 30.00000000
PL65    402.438995   1151.009790   6755.626248   7854.566378
VL65  18302.929461  72589.856801 -13520.606954 999999.999999
*  2023  1 25 23  9  0.00000000
PL65    457.592007   1367.986990   6711.335982   7855.034565
VL65  18461.980222  72048.242779 -16003.582418 999999.999999
*  2023  1 25 23  9 30.00000000
PL65    513.188027   1583.219386   6659.622041   7855.502524
VL65  18598.181802  71426.771651 -18469.270674 999999.999999
*  2023  1 25 23 10  0.00000000
PL65    569.157741   1796.468512   6600.540356   7855.970553
VL65  18711.028116  70726.194981 -20914.961509 999999.999999
EOF
